{"type": "FeatureCollection", "features": [ {"type": "Feature", "properties": {"norad_id": 41469, "name": "IRNSS-1G", "group": "gnss", "lat": 4.570085849851161, "lon": 174.81992011764856, "alt_km": 35788.09820203526, "timestamp": "2025-12-25T20:42:38.932645+00:00", "meta": {"OBJECT_NAME": "IRNSS-1G", "OBJECT_ID": "2016-027A", "EPOCH": "2025-12-24T19:59:21.645888", "MEAN_MOTION": 1.00274057, "ECCENTRICITY": 0.0002683, "INCLINATION": 4.7642, "RA_OF_ASC_NODE": 101.7886, "ARG_OF_PERICENTER": 327.0032, "MEAN_ANOMALY": 94.21, "EPHEMERIS_TYPE": 0, "CLASSIFICATION_TYPE": "U", "NORAD_CAT_ID": 41469, "ELEMENT_SET_NO": 999, "REV_AT_EPOCH": 3543, "BSTAR": 0, "MEAN_MOTION_DOT": -3.14e-06, "MEAN_MOTION_DDOT": 0}, "tle": {"line1": "1 41469U 16027A   25358.83288942 -.00000314  00000+0  00000+0 0  9994", "line2": "2 41469   4.7642 101.7886 0002683 327.0032  94.2100  1.00274057 35433"}}, "geometry": {"type": "Point", "coordinates": [174.81992011764856, 4.570085849851161]}}, {"type": "Feature", "properties": {"norad_id": 41549, "name": "GSAT0211 (GALILEO 14)", "group": "gnss", "lat": 48.93449577423893, "lon": -80.43940089629169, "alt_km": 23208.907615728258, "timestamp": "2025-12-25T20:42:38.932657+00:00", "meta": {"OBJECT_NAME": "GSAT0211 (GALILEO 14)", "OBJECT_ID": "2016-030A", "EPOCH": "2025-12-23T23:52:07.352256", "MEAN_MOTION": 1.70473256, "ECCENTRICITY": 0.0004011, "INCLINATION": 55.1486, "RA_OF_ASC_NODE": 226.5135, "ARG_OF_PERICENTER": 16.1635, "MEAN_ANOMALY": 343.9466, "EPHEMERIS_TYPE": 0, "CLASSIFICATION_TYPE": "U", "NORAD_CAT_ID": 41549, "ELEMENT_SET_NO": 999, "REV_AT_EPOCH": 5968, "BSTAR": 0, "MEAN_MOTION_DOT": 7.2e-07, "MEAN_MOTION_DDOT": 0}, "tle": {"line1": "1 41549U 16030A   25357.99452954  .00000072  00000+0  00000+0 0  9999", "line2": "2 41549  55.1486 226.5135 0004011  16.1635 343.9466  1.70473256 59684"}}, "geometry": {"type": "Point", "coordinates": [-80.43940089629169, 48.93449577423893]}}, {"type": "Feature", "properties": {"norad_id": 41550, "name": "GSAT0210 (GALILEO 13)", "group": "gnss", "lat": -55.118208719791404, "lon": 134.29599609015435, "alt_km": 23228.256884059116, "timestamp": "2025-12-25T20:42:38.932667+00:00", "meta": {"OBJECT_NAME": "GSAT0210 (GALILEO 13)", "OBJECT_ID": "2016-030B", "EPOCH": "2025-12-24T20:07:27.603552", "MEAN_MOTION": 1.70473396, "ECCENTRICITY": 5.683e-05, "INCLINATION": 55.1478, "RA_OF_ASC_NODE": 226.4883, "ARG_OF_PERICENTER": 175.0994, "MEAN_ANOMALY": 184.9941, "EPHEMERIS_TYPE": 0, "CLASSIFICATION_TYPE": "U", "NORAD_CAT_ID": 41550, "ELEMENT_SET_NO": 999, "REV_AT_EPOCH": 5969, "BSTAR": 0, "MEAN_MOTION_DOT": 7.1e-07, "MEAN_MOTION_DDOT": 0}, "tle": {"line1": "1 41550U 16030B   25358.83851393  .00000071  00000+0  00000+0 0  9994", "line2": "2 41550  55.1478 226.4883 0000568 175.0994 184.9941  1.70473396 59699"}}, "geometry": {"type": "Point", "coordinates": [134.29599609015435, -55.118208719791404]}}, {"type": "Feature", "properties": {"norad_id": 41586, "name": "BEIDOU-2 G7 (C03)", "group": "gnss", "lat": 1.798225307862829, "lon": 155.75220800611012, "alt_km": 35785.52988777346, "timestamp": "2025-12-25T20:42:38.932679+00:00", "meta": {"OBJECT_NAME": "BEIDOU-2 G7 (C03)", "OBJECT_ID": "2016-037A", "EPOCH": "2025-12-25T01:25:38.455104", "MEAN_MOTION": 1.00268771, "ECCENTRICITY": 0.00052026, "INCLINATION": 1.7852, "RA_OF_ASC_NODE": 67.8927, "ARG_OF_PERICENTER": 0.9679, "MEAN_ANOMALY": 156.8036, "EPHEMERIS_TYPE": 0, "CLASSIFICATION_TYPE": "U", "NORAD_CAT_ID": 41586, "ELEMENT_SET_NO": 999, "REV_AT_EPOCH": 514, "BSTAR": 0, "MEAN_MOTION_DOT": -3.32e-06, "MEAN_MOTION_DDOT": 0}, "tle": {"line1": "1 41586U 16037A   25359.05947286 -.00000332  00000+0  00000+0 0  9993", "line2": "2 41586   1.7852  67.8927 0005202   0.9679 156.8036  1.00268771  5149"}}, "geometry": {"type": "Point", "coordinates": [155.75220800611012, 1.798225307862829]}}, {"type": "Feature", "properties": {"norad_id": 41589, "name": "EUTELSAT 117 WEST B (WAAS/PRN 131)", "group": "gnss", "lat": 0.004894798154616854, "lon": -71.70956708288364, "alt_km": 35781.6268075987, "timestamp": "2025-12-25T20:42:38.932691+00:00", "meta": {"OBJECT_NAME": "EUTELSAT 117 WEST B (WAAS/PRN 131)", "OBJECT_ID": "2016-038B", "EPOCH": "2025-12-24T09:59:01.014144", "MEAN_MOTION": 1.00277873, "ECCENTRICITY": 6.384e-05, "INCLINATION": 0.0094, "RA_OF_ASC_NODE": 154.0765, "ARG_OF_PERICENTER": 139.5473, "MEAN_ANOMALY": 192.3072, "EPHEMERIS_TYPE": 0, "CLASSIFICATION_TYPE": "U", "NORAD_CAT_ID": 41589, "ELEMENT_SET_NO": 999, "REV_AT_EPOCH": 3491, "BSTAR": 0, "MEAN_MOTION_DOT": 9e-08, "MEAN_MOTION_DDOT": 0}, "tle": {"line1": "1 41589U 16038B   25358.41598396  .00000009  00000+0  00000+0 0  9990", "line2": "2 41589   0.0094 154.0765 0000638 139.5473 192.3072  1.00277873 34915"}}, "geometry": {"type": "Point", "coordinates": [-71.70956708288364, 0.004894798154616854]}}, {"type": "Feature", "properties": {"norad_id": 41859, "name": "GSAT0207 (GALILEO 15)", "group": "gnss", "lat": 54.61006724244852, "lon": -150.21357211152875, "alt_km": 23221.38257112532, "timestamp": "2025-12-25T20:42:38.932705+00:00", "meta": {"OBJECT_NAME": "GSAT0207 (GALILEO 15)", "OBJECT_ID": "2016-069A", "EPOCH": "2025-12-22T04:24:39.710016", "MEAN_MOTION": 1.70474442, "ECCENTRICITY": 0.00024396, "INCLINATION": 55.3874, "RA_OF_ASC_NODE": 105.9888, "ARG_OF_PERICENTER": 317.4324, "MEAN_ANOMALY": 42.5257, "EPHEMERIS_TYPE": 0, "CLASSIFICATION_TYPE": "U", "NORAD_CAT_ID": 41859, "ELEMENT_SET_NO": 999, "REV_AT_EPOCH": 5638, "BSTAR": 0, "MEAN_MOTION_DOT": 6e-08, "MEAN_MOTION_DDOT": 0}, "tle": {"line1": "1 41859U 16069A   25356.18379294  .00000006  00000+0  00000+0 0  9997", "line2": "2 41859  55.3874 105.9888 0002439 317.4324  42.5257  1.70474442 56382"}}, "geometry": {"type": "Point", "coordinates": [-150.21357211152875, 54.61006724244852]}}, {"type": "Feature", "properties": {"norad_id": 41860, "name": "GSAT0212 (GALILEO 16)", "group": "gnss", "lat": -6.457600870378276, "lon": -69.64038605732841, "alt_km": 23229.16659425556, "timestamp": "2025-12-25T20:42:38.932718+00:00", "meta": {"OBJECT_NAME": "GSAT0212 (GALILEO 16)", "OBJECT_ID": "2016-069B", "EPOCH": "2025-12-23T19:07:58.296864", "MEAN_MOTION": 1.70474626, "ECCENTRICITY": 0.0002039, "INCLINATION": 55.3859, "RA_OF_ASC_NODE": 105.9395, "ARG_OF_PERICENTER": 17.7426, "MEAN_ANOMALY": 342.2518, "EPHEMERIS_TYPE": 0, "CLASSIFICATION_TYPE": "U", "NORAD_CAT_ID": 41860, "ELEMENT_SET_NO": 999, "REV_AT_EPOCH": 5666, "BSTAR": 0, "MEAN_MOTION_DOT": 1.3e-07, "MEAN_MOTION_DDOT": 0}, "tle": {"line1": "1 41860U 16069B   25357.79720251  .00000013  00000+0  00000+0 0  9998", "line2": "2 41860  55.3859 105.9395 0002039  17.7426 342.2518  1.70474626 56664"}}, "geometry": {"type": "Point", "coordinates": [-69.64038605732841, -6.457600870378276]}}, {"type": "Feature", "properties": {"norad_id": 41861, "name": "GSAT0213 (GALILEO 17)", "group": "gnss", "lat": -30.287356006437285, "lon": 82.13911238934178, "alt_km": 23219.721770508437, "timestamp": "2025-12-25T20:42:38.932729+00:00", "meta": {"OBJECT_NAME": "GSAT0213 (GALILEO 17)", "OBJECT_ID": "2016-069C", "EPOCH": "2025-12-21T19:38:29.842080", "MEAN_MOTION": 1.70474953, "ECCENTRICITY": 0.00027355, "INCLINATION": 55.3872, "RA_OF_ASC_NODE": 106.002, "ARG_OF_PERICENTER": 282.3014, "MEAN_ANOMALY": 77.6427, "EPHEMERIS_TYPE": 0, "CLASSIFICATION_TYPE": "U", "NORAD_CAT_ID": 41861, "ELEMENT_SET_NO": 999, "REV_AT_EPOCH": 5649, "BSTAR": 0, "MEAN_MOTION_DOT": 4e-08, "MEAN_MOTION_DDOT": 0}, "tle": {"line1": "1 41861U 16069C   25355.81840095  .00000004  00000+0  00000+0 0  9999", "line2": "2 41861  55.3872 106.0020 0002735 282.3014  77.6427  1.70474953 56495"}}, "geometry": {"type": "Point", "coordinates": [82.13911238934178, -30.287356006437285]}}, {"type": "Feature", "properties": {"norad_id": 41862, "name": "GSAT0214 (GALILEO 18)", "group": "gnss", "lat": -40.85344002346695, "lon": -37.50358173160251, "alt_km": 23223.954686302597, "timestamp": "2025-12-25T20:42:38.932740+00:00", "meta": {"OBJECT_NAME": "GSAT0214 (GALILEO 18)", "OBJECT_ID": "2016-069D", "EPOCH": "2025-12-24T07:27:29.645856", "MEAN_MOTION": 1.70474781, "ECCENTRICITY": 0.00017476, "INCLINATION": 55.3867, "RA_OF_ASC_NODE": 105.9257, "ARG_OF_PERICENTER": 287.2715, "MEAN_ANOMALY": 72.6994, "EPHEMERIS_TYPE": 0, "CLASSIFICATION_TYPE": "U", "NORAD_CAT_ID": 41862, "ELEMENT_SET_NO": 999, "REV_AT_EPOCH": 5666, "BSTAR": 0, "MEAN_MOTION_DOT": 1.5e-07, "MEAN_MOTION_DDOT": 0}, "tle": {"line1": "1 41862U 16069D   25358.31075979  .00000015  00000+0  00000+0 0  9991", "line2": "2 41862  55.3867 105.9257 0001747 287.2715  72.6994  1.70474781 56666"}}, "geometry": {"type": "Point", "coordinates": [-37.50358173160251, -40.85344002346695]}}, {"type": "Feature", "properties": {"norad_id": 42709, "name": "SES-15 (WAAS/PRN 133)", "group": "gnss", "lat": -0.034081789052780725, "lon": -83.90879426014557, "alt_km": 35786.63196985934, "timestamp": "2025-12-25T20:42:38.932751+00:00", "meta": {"OBJECT_NAME": "SES-15 (WAAS/PRN 133)", "OBJECT_ID": "2017-026A", "EPOCH": "2025-12-24T22:45:23.082912", "MEAN_MOTION": 1.00266955, "ECCENTRICITY": 1.926e-05, "INCLINATION": 0.0189, "RA_OF_ASC_NODE": 339.9937, "ARG_OF_PERICENTER": 321.3505, "MEAN_ANOMALY": 4.5524, "EPHEMERIS_TYPE": 0, "CLASSIFICATION_TYPE": "U", "NORAD_CAT_ID": 42709, "ELEMENT_SET_NO": 999, "REV_AT_EPOCH": 568, "BSTAR": 0, "MEAN_MOTION_DOT": 8.1e-07, "MEAN_MOTION_DDOT": 0}, "tle": {"line1": "1 42709U 17026A   25358.94818383  .00000081  00000+0  00000+0 0  9992", "line2": "2 42709   0.0189 339.9937 0000192 321.3505   4.5524  1.00266955  5689"}}, "geometry": {"type": "Point", "coordinates": [-83.90879426014557, -0.034081789052780725]}}]}